{"type": "FeatureCollection", "features": [{"type": "Feature", "properties": {"norad_id": 36828, "name": "BEIDOU-2 IGSO-1 (C06)", "group": "beidou", "lat": -12.692471237176155, "lon": 155.33719291699336, "alt_km": 35920.193348050096, "timestamp": "2025-12-08T21:31:04.932761+00:00", "meta": {"OBJECT_NAME": "BEIDOU-2 IGSO-1 (C06)", "OBJECT_ID": "2010-036A", "EPOCH": "2025-12-08T10:41:23.989056", "MEAN_MOTION": 1.00277305, "ECCENTRICITY": 0.0051235, "INCLINATION": 54.2853, "RA_OF_ASC_NODE": 164.6865, "ARG_OF_PERICENTER": 215.8868, "MEAN_ANOMALY": 325.0672, "EPHEMERIS_TYPE": 0, "CLASSIFICATION_TYPE": "U", "NORAD_CAT_ID": 36828, "ELEMENT_SET_NO": 999, "REV_AT_EPOCH": 5618, "BSTAR": 0, "MEAN_MOTION_DOT": -6.9e-07, "MEAN_MOTION_DDOT": 0}, "tle": {"line1": "1 36828U 10036A   25342.44541654 -.00000069  00000+0  00000+0 0  9990", "line2": "2 36828  54.2853 164.6865 0051235 215.8868 325.0672  1.00277305 56186"}}, "geometry": {"type": "Point", "coordinates": [155.33719291699336, -12.692471237176155]}}, {"type": "Feature", "properties": {"norad_id": 37210, "name": "BEIDOU-2 G4 (C04)", "group": "beidou", "lat": 2.3958102072740375, "lon": -159.32238015893762, "alt_km": 35762.56365658423, "timestamp": "2025-12-08T21:31:04.932785+00:00", "meta": {"OBJECT_NAME": "BEIDOU-2 G4 (C04)", "OBJECT_ID": "2010-057A", "EPOCH": "2025-12-08T13:24:38.712960", "MEAN_MOTION": 1.002715, "ECCENTRICITY": 0.00108984, "INCLINATION": 3.1742, "RA_OF_ASC_NODE": 69.9494, "ARG_OF_PERICENTER": 190.4296, "MEAN_ANOMALY": 178.4209, "EPHEMERIS_TYPE": 0, "CLASSIFICATION_TYPE": "U", "NORAD_CAT_ID": 37210, "ELEMENT_SET_NO": 999, "REV_AT_EPOCH": 5538, "BSTAR": 0, "MEAN_MOTION_DOT": -1.1e-06, "MEAN_MOTION_DDOT": 0}, "tle": {"line1": "1 37210U 10057A   25342.55878140 -.00000110  00000+0  00000+0 0  9991", "line2": "2 37210   3.1742  69.9494 0010898 190.4296 178.4209  1.00271500 55388"}}, "geometry": {"type": "Point", "coordinates": [-159.32238015893762, 2.3958102072740375]}}, {"type": "Feature", "properties": {"norad_id": 37256, "name": "BEIDOU-2 IGSO-2 (C07)", "group": "beidou", "lat": -36.96590892086304, "lon": 136.95914959377845, "alt_km": 35589.488914529364, "timestamp": "2025-12-08T21:31:04.932800+00:00", "meta": {"OBJECT_NAME": "BEIDOU-2 IGSO-2 (C07)", "OBJECT_ID": "2010-068A", "EPOCH": "2025-12-03T17:22:36.030432", "MEAN_MOTION": 1.0028871, "ECCENTRICITY": 0.00492335, "INCLINATION": 47.9043, "RA_OF_ASC_NODE": 274.2613, "ARG_OF_PERICENTER": 216.1442, "MEAN_ANOMALY": 310.2369, "EPHEMERIS_TYPE": 0, "CLASSIFICATION_TYPE": "U", "NORAD_CAT_ID": 37256, "ELEMENT_SET_NO": 999, "REV_AT_EPOCH": 5483, "BSTAR": 0, "MEAN_MOTION_DOT": -2.25e-06, "MEAN_MOTION_DDOT": 0}, "tle": {"line1": "1 37256U 10068A   25337.72402813 -.00000225  00000+0  00000+0 0  9993", "line2": "2 37256  47.9043 274.2613 0049233 216.1442 310.2369  1.00288710 54839"}}, "geometry": {"type": "Point", "coordinates": [136.95914959377845, -36.96590892086304]}}, {"type": "Feature", "properties": {"norad_id": 37384, "name": "BEIDOU-2 IGSO-3 (C08)", "group": "beidou", "lat": 58.261859538495564, "lon": 163.33554735328312, "alt_km": 35757.583105886355, "timestamp": "2025-12-08T21:31:04.932814+00:00", "meta": {"OBJECT_NAME": "BEIDOU-2 IGSO-3 (C08)", "OBJECT_ID": "2011-013A", "EPOCH": "2025-12-07T14:00:04.361184", "MEAN_MOTION": 1.00271435, "ECCENTRICITY": 0.00353343, "INCLINATION": 62.1366, "RA_OF_ASC_NODE": 41.9657, "ARG_OF_PERICENTER": 187.0632, "MEAN_ANOMALY": 165.2408, "EPHEMERIS_TYPE": 0, "CLASSIFICATION_TYPE": "U", "NORAD_CAT_ID": 37384, "ELEMENT_SET_NO": 999, "REV_AT_EPOCH": 5373, "BSTAR": 0, "MEAN_MOTION_DOT": -1.91e-06, "MEAN_MOTION_DDOT": 0}, "tle": {"line1": "1 37384U 11013A   25341.58338381 -.00000191  00000+0  00000+0 0  9995", "line2": "2 37384  62.1366  41.9657 0035334 187.0632 165.2408  1.00271435 53735"}}, "geometry": {"type": "Point", "coordinates": [163.33554735328312, 58.261859538495564]}}, {"type": "Feature", "properties": {"norad_id": 37763, "name": "BEIDOU-2 IGSO-4 (C09)", "group": "beidou", "lat": -24.613475716405222, "lon": 148.3221747789323, "alt_km": 35875.61784622383, "timestamp": "2025-12-08T21:31:04.932827+00:00", "meta": {"OBJECT_NAME": "BEIDOU-2 IGSO-4 (C09)", "OBJECT_ID": "2011-038A", "EPOCH": "2025-12-01T12:32:09.960864", "MEAN_MOTION": 1.00284074, "ECCENTRICITY": 0.01487808, "INCLINATION": 54.5808, "RA_OF_ASC_NODE": 167.4476, "ARG_OF_PERICENTER": 230.2031, "MEAN_ANOMALY": 315.0387, "EPHEMERIS_TYPE": 0, "CLASSIFICATION_TYPE": "U", "NORAD_CAT_ID": 37763, "ELEMENT_SET_NO": 999, "REV_AT_EPOCH": 5266, "BSTAR": 0, "MEAN_MOTION_DOT": 1.01e-06, "MEAN_MOTION_DDOT": 0}, "tle": {"line1": "1 37763U 11038A   25335.52233751  .00000101  00000+0  00000+0 0  9995", "line2": "2 37763  54.5808 167.4476 0148780 230.2031 315.0387  1.00284074 52664"}}, "geometry": {"type": "Point", "coordinates": [148.3221747789323, -24.613475716405222]}}, {"type": "Feature", "properties": {"norad_id": 37948, "name": "BEIDOU-2 IGSO-5 (C10)", "group": "beidou", "lat": -28.218819536349265, "lon": 122.70129675498735, "alt_km": 35320.565354128354, "timestamp": "2025-12-08T21:31:04.932840+00:00", "meta": {"OBJECT_NAME": "BEIDOU-2 IGSO-5 (C10)", "OBJECT_ID": "2011-073A", "EPOCH": "2025-12-07T19:12:14.882400", "MEAN_MOTION": 1.00291658, "ECCENTRICITY": 0.01104068, "INCLINATION": 48.0298, "RA_OF_ASC_NODE": 273.9181, "ARG_OF_PERICENTER": 222.1784, "MEAN_ANOMALY": 321.4594, "EPHEMERIS_TYPE": 0, "CLASSIFICATION_TYPE": "U", "NORAD_CAT_ID": 37948, "ELEMENT_SET_NO": 999, "REV_AT_EPOCH": 5121, "BSTAR": 0, "MEAN_MOTION_DOT": -1.91e-06, "MEAN_MOTION_DDOT": 0}, "tle": {"line1": "1 37948U 11073A   25341.80017225 -.00000191  00000+0  00000+0 0  9993", "line2": "2 37948  48.0298 273.9181 0110406 222.1784 321.4594  1.00291658 51212"}}, "geometry": {"type": "Point", "coordinates": [122.70129675498735, -28.218819536349265]}}, {"type": "Feature", "properties": {"norad_id": 38091, "name": "BEIDOU-2 G5 (C05)", "group": "beidou", "lat": 1.5095160959846345, "lon": 99.41753570448957, "alt_km": 35835.50477452946, "timestamp": "2025-12-08T21:31:04.932853+00:00", "meta": {"OBJECT_NAME": "BEIDOU-2 G5 (C05)", "OBJECT_ID": "2012-008A", "EPOCH": "2025-12-08T13:53:05.631360", "MEAN_MOTION": 1.00274194, "ECCENTRICITY": 0.00125349, "INCLINATION": 3.0988, "RA_OF_ASC_NODE": 70.7215, "ARG_OF_PERICENTER": 226.9655, "MEAN_ANOMALY": 46.9097, "EPHEMERIS_TYPE": 0, "CLASSIFICATION_TYPE": "U", "NORAD_CAT_ID": 38091, "ELEMENT_SET_NO": 999, "REV_AT_EPOCH": 5045, "BSTAR": 0, "MEAN_MOTION_DOT": 5.8e-07, "MEAN_MOTION_DDOT": 0}, "tle": {"line1": "1 38091U 12008A   25342.57853740  .00000058  00000+0  00000+0 0  9998", "line2": "2 38091   3.0988  70.7215 0012534 226.9655  46.9097  1.00274194 50450"}}, "geometry": {"type": "Point", "coordinates": [99.41753570448957, 1.5095160959846345]}}, {"type": "Feature", "properties": {"norad_id": 38250, "name": "BEIDOU-2 M3 (C11)", "group": "beidou", "lat": -31.787679769376975, "lon": 156.0540157604244, "alt_km": 21492.796262386353, "timestamp": "2025-12-08T21:31:04.932864+00:00", "meta": {"OBJECT_NAME": "BEIDOU-2 M3 (C11)", "OBJECT_ID": "2012-018A", "EPOCH": "2025-12-08T13:38:39.272640", "MEAN_MOTION": 1.86229758, "ECCENTRICITY": 0.00243707, "INCLINATION": 55.9237, "RA_OF_ASC_NODE": 311.2978, "ARG_OF_PERICENTER": 274.148, "MEAN_ANOMALY": 85.5607, "EPHEMERIS_TYPE": 0, "CLASSIFICATION_TYPE": "U", "NORAD_CAT_ID": 38250, "ELEMENT_SET_NO": 999, "REV_AT_EPOCH": 9239, "BSTAR": 0, "MEAN_MOTION_DOT": -7.3e-07, "MEAN_MOTION_DDOT": 0}, "tle": {"line1": "1 38250U 12018A   25342.56851010 -.00000073  00000+0  00000+0 0  9991", "line2": "2 38250  55.9237 311.2978 0024370 274.1480  85.5607  1.86229758 92396"}}, "geometry": {"type": "Point", "coordinates": [156.0540157604244, -31.787679769376975]}}, {"type": "Feature", "properties": {"norad_id": 38251, "name": "BEIDOU-2 M4 (C12)", "group": "beidou", "lat": -55.544806319090554, "lon": -147.7854158893148, "alt_km": 21491.76419661435, "timestamp": "2025-12-08T21:31:04.932875+00:00", "meta": {"OBJECT_NAME": "BEIDOU-2 M4 (C12)", "OBJECT_ID": "2012-018B", "EPOCH": "2025-12-08T12:00:48.229344", "MEAN_MOTION": 1.86229448, "ECCENTRICITY": 0.00155158, "INCLINATION": 55.8253, "RA_OF_ASC_NODE": 310.5294, "ARG_OF_PERICENTER": 277.5058, "MEAN_ANOMALY": 82.3051, "EPHEMERIS_TYPE": 0, "CLASSIFICATION_TYPE": "U", "NORAD_CAT_ID": 38251, "ELEMENT_SET_NO": 999, "REV_AT_EPOCH": 9239, "BSTAR": 0, "MEAN_MOTION_DOT": -7.3e-07, "MEAN_MOTION_DDOT": 0}, "tle": {"line1": "1 38251U 12018B   25342.50055821 -.00000073  00000+0  00000+0 0  9992", "line2": "2 38251  55.8253 310.5294 0015515 277.5058  82.3051  1.86229448 92390"}}, "geometry": {"type": "Point", "coordinates": [-147.7854158893148, -55.544806319090554]}}, {"type": "Feature", "properties": {"norad_id": 38775, "name": "BEIDOU-2 M6 (C14)", "group": "beidou", "lat": 55.24933168962121, "lon": 175.9021659996498, "alt_km": 21534.200115704498, "timestamp": "2025-12-08T21:31:04.932888+00:00", "meta": {"OBJECT_NAME": "BEIDOU-2 M6 (C14)", "OBJECT_ID": "2012-050B", "EPOCH": "2025-12-08T05:04:33.479040", "MEAN_MOTION": 1.86230723, "ECCENTRICITY": 0.00110356, "INCLINATION": 56.3747, "RA_OF_ASC_NODE": 69.2178, "ARG_OF_PERICENTER": 345.3738, "MEAN_ANOMALY": 14.6151, "EPHEMERIS_TYPE": 0, "CLASSIFICATION_TYPE": "U", "NORAD_CAT_ID": 38775, "ELEMENT_SET_NO": 999, "REV_AT_EPOCH": 8975, "BSTAR": 0, "MEAN_MOTION_DOT": -4.4e-07, "MEAN_MOTION_DDOT": 0}, "tle": {"line1": "1 38775U 12050B   25342.21149860 -.00000044  00000+0  00000+0 0  9992", "line2": "2 38775  56.3747  69.2178 0011035 345.3738  14.6151  1.86230723 89759"}}, "geometry": {"type": "Point", "coordinates": [175.9021659996498, 55.24933168962121]}}]}